{"type":"FeatureCollection","features":[{"type":"Feature","properties":{"description":"Test tree canopy","color":"#2c4e03","icon":"MarkerIcon","sys_id":"657ed9dd1db9a1121fafe7ae"},"geometry":{"type":"Polygon","coordinates":[[[88.472830557819,22.572680591490116],[88.47280198313052,22.57263581578774],[88.4728314237188,22.57260463270081],[88.472838350916,22.572548663039885],[88.47287991409931,22.572535869971365],[88.47289030489517,22.57250868469672],[88.47288251179836,22.57244871716034],[88.47292840448006,22.572428727975602],[88.47296996766336,22.572445518890785],[88.47300114005084,22.572440721486757],[88.47304530093339,22.57247350374526],[88.47304530093339,22.572512682531492],[88.47303058063913,22.572533471270837],[88.4730496304316,22.57259823616929],[88.47296563816515,22.57264621014841],[88.47294485657353,22.5726206240283],[88.47291974548345,22.5726230227273],[88.472830557819,22.572680591490116]]]}}]}