{"type":"FeatureCollection","features":[{"type":"Feature","properties":{"description":"Test block","color":"#50e3c2","garbageCollectionInfo":"Not Available","averageBuildingHeight":"230","averageBlockHeight":"225","averageIncentives":"5000","icon":"MarkerIcon","sys_id":"657ed057b7e5f1af532b9ef6"},"geometry":{"type":"Polygon","coordinates":[[[88.47346652507605,22.573565333250016],[88.47262106518131,22.572388599232376],[88.47394479618445,22.57147113862161],[88.47487973906078,22.572761850093425],[88.47346652507605,22.573565333250016]]]}}]}