{"type":"FeatureCollection","features":[{"type":"Feature","properties":{"description":"Test waterbody","color":"#106cd7","icon":"MarkerIcon","sys_id":"657eda6a1db9a1121fafe7eb"},"geometry":{"type":"Polygon","coordinates":[[[88.47419425895541,22.57207758348739],[88.47420270064049,22.572013274475154],[88.4742406882235,22.57200547944135],[88.47430716649355,22.572017171991924],[88.47431455296793,22.57206101904766],[88.47428606228075,22.572091224789194],[88.47424174343415,22.57210681484675],[88.47419425895541,22.57207758348739]]]}}]}