{"type":"FeatureCollection","features":[{"type":"Feature","properties":{"description":"Test greenery","color":"#417505","icon":"MarkerIcon","sys_id":"657ed9781db9a1121fafe789"},"geometry":{"type":"Polygon","coordinates":[[[88.47272524498902,22.57250734525874],[88.4728510954807,22.57242745109896],[88.47281963285774,22.57236692518959],[88.47295072712019,22.57230155717743],[88.47314474662855,22.57254123973677],[88.47300840859572,22.572625975895363],[88.47306609007117,22.572691343753675],[88.47292975203828,22.572783342909016],[88.47272524498902,22.57250734525874]]]}}]}