{"type":"FeatureCollection","features":[{"type":"Feature","properties":{"description":"Test Building inside plot","color":"#fa9d04","buildingAvailable":"Yes","floorCount":"G+4","buildingNo":"1","hasCompletionCertificate":"Yes","buildingHeight":"200","icon":"MarkerIcon","sys_id":"657eca85b7e5f1af532b9ee3"},"geometry":{"type":"Polygon","coordinates":[[[88.47356796233298,22.57293905822293],[88.47366821268756,22.572876153269206],[88.47370711292152,22.57293119510532],[88.47360473369865,22.572991598133843],[88.47356796233298,22.57293905822293]]]}}]}